[{"OBJECT_NAME":"ONEWEB-0243","OBJECT_ID":"2021-045H","EPOCH":"2025-08-01T07:40:39.916416","MEAN_MOTION":13.15548047,"ECCENTRICITY":0.0002297,"INCLINATION":87.9091,"RA_OF_ASC_NODE":323.0097,"ARG_OF_PERICENTER":91.4822,"MEAN_ANOMALY":268.6572,"EPHEMERIS_TYPE":0,"CLASSIFICATION_TYPE":"U","NORAD_CAT_ID":48774,"ELEMENT_SET_NO":999,"REV_AT_EPOCH":20230,"BSTAR":8.4546e-6,"MEAN_MOTION_DOT":1.6e-7,"MEAN_MOTION_DDOT":0},{"OBJECT_NAME":"ONEWEB-0222","OBJECT_ID":"2021-045J","EPOCH":"2025-08-01T14:34:48.955584","MEAN_MOTION":13.15548977,"ECCENTRICITY":0.0001909,"INCLINATION":87.9079,"RA_OF_ASC_NODE":322.9084,"ARG_OF_PERICENTER":93.3293,"MEAN_ANOMALY":266.8056,"EPHEMERIS_TYPE":0,"CLASSIFICATION_TYPE":"U","NORAD_CAT_ID":48775,"ELEMENT_SET_NO":999,"REV_AT_EPOCH":20238,"BSTAR":0.00040551,"MEAN_MOTION_DOT":1.65e-6,"MEAN_MOTION_DDOT":0},{"OBJECT_NAME":"ONEWEB-0244","OBJECT_ID":"2021-045K","EPOCH":"2025-08-01T07:54:21.341952","MEAN_MOTION":13.15548068,"ECCENTRICITY":0.0002126,"INCLINATION":87.9083,"RA_OF_ASC_NODE":322.9438,"ARG_OF_PERICENTER":98.5206,"MEAN_ANOMALY":261.6165,"EPHEMERIS_TYPE":0,"CLASSIFICATION_TYPE":"U","NORAD_CAT_ID":48776,"ELEMENT_SET_NO":999,"REV_AT_EPOCH":20291,"BSTAR":-0.00015742,"MEAN_MOTION_DOT":-4.6e-7,"MEAN_MOTION_DDOT":0},{"OBJECT_NAME":"ONEWEB-0247","OBJECT_ID":"2021-045L","EPOCH":"2025-08-01T07:49:47.788320","MEAN_MOTION":13.15547362,"ECCENTRICITY":0.0002715,"INCLINATION":87.9081,"RA_OF_ASC_NODE":323.0172,"ARG_OF_PERICENTER":83.7464,"MEAN_ANOMALY":276.3975,"EPHEMERIS_TYPE":0,"CLASSIFICATION_TYPE":"U","NORAD_CAT_ID":48777,"ELEMENT_SET_NO":999,"REV_AT_EPOCH":20235,"BSTAR":-0.00013813,"MEAN_MOTION_DOT":-3.9e-7,"MEAN_MOTION_DDOT":0},{"OBJECT_NAME":"ONEWEB-0245","OBJECT_ID":"2021-045M","EPOCH":"2025-08-01T07:42:56.659104","MEAN_MOTION":13.15548097,"ECCENTRICITY":0.000183,"INCLINATION":87.9079,"RA_OF_ASC_NODE":322.9815,"ARG_OF_PERICENTER":92.5273,"MEAN_ANOMALY":267.6066,"EPHEMERIS_TYPE":0,"CLASSIFICATION_TYPE":"U","NORAD_CAT_ID":48778,"ELEMENT_SET_NO":999,"REV_AT_EPOCH":20232,"BSTAR":7.682e-5,"MEAN_MOTION_DOT":4.2e-7,"MEAN_MOTION_DDOT":0},{"OBJECT_NAME":"ONEWEB-0229","OBJECT_ID":"2021-045N","EPOCH":"2025-08-01T09:25:37.364448","MEAN_MOTION":13.15548017,"ECCENTRICITY":0.0002075,"INCLINATION":87.9084,"RA_OF_ASC_NODE":322.9665,"ARG_OF_PERICENTER":97.7907,"MEAN_ANOMALY":262.3459,"EPHEMERIS_TYPE":0,"CLASSIFICATION_TYPE":"U","NORAD_CAT_ID":48779,"ELEMENT_SET_NO":999,"REV_AT_EPOCH":20236,"BSTAR":3.5589e-5,"MEAN_MOTION_DOT":2.6e-7,"MEAN_MOTION_DDOT":0},{"OBJECT_NAME":"ONEWEB-0228","OBJECT_ID":"2021-045P","EPOCH":"2025-08-01T08:24:13.351392","MEAN_MOTION":13.15547952,"ECCENTRICITY":0.0002015,"INCLINATION":87.9079,"RA_OF_ASC_NODE":322.9489,"ARG_OF_PERICENTER":95.8818,"MEAN_ANOMALY":264.2542,"EPHEMERIS_TYPE":0,"CLASSIFICATION_TYPE":"U","NORAD_CAT_ID":48780,"ELEMENT_SET_NO":999,"REV_AT_EPOCH":20227,"BSTAR":0.00013801,"MEAN_MOTION_DOT":6.5e-7,"MEAN_MOTION_DDOT":0},{"OBJECT_NAME":"ONEWEB-0232","OBJECT_ID":"2021-045Q","EPOCH":"2025-08-01T07:47:31.761024","MEAN_MOTION":13.15549269,"ECCENTRICITY":0.0001948,"INCLINATION":87.9077,"RA_OF_ASC_NODE":322.9481,"ARG_OF_PERICENTER":98.1178,"MEAN_ANOMALY":262.0173,"EPHEMERIS_TYPE":0,"CLASSIFICATION_TYPE":"U","NORAD_CAT_ID":48781,"ELEMENT_SET_NO":999,"REV_AT_EPOCH":20259,"BSTAR":-8.2216e-5,"MEAN_MOTION_DOT":-1.8e-7,"MEAN_MOTION_DDOT":0},{"OBJECT_NAME":"ONEWEB-0231","OBJECT_ID":"2021-045R","EPOCH":"2025-08-01T07:15:33.903072","MEAN_MOTION":13.15550236,"ECCENTRICITY":0.0002139,"INCLINATION":87.907,"RA_OF_ASC_NODE":323.0065,"ARG_OF_PERICENTER":92.9107,"MEAN_ANOMALY":267.2268,"EPHEMERIS_TYPE":0,"CLASSIFICATION_TYPE":"U","NORAD_CAT_ID":48782,"ELEMENT_SET_NO":999,"REV_AT_EPOCH":20228,"BSTAR":0.00054263,"MEAN_MOTION_DOT":2.17e-6,"MEAN_MOTION_DDOT":0},{"OBJECT_NAME":"ONEWEB-0234","OBJECT_ID":"2021-045S","EPOCH":"2025-08-01T08:10:05.870208","MEAN_MOTION":13.15548898,"ECCENTRICITY":0.000103,"INCLINATION":87.9076,"RA_OF_ASC_NODE":322.9655,"ARG_OF_PERICENTER":99.3267,"MEAN_ANOMALY":260.798,"EPHEMERIS_TYPE":0,"CLASSIFICATION_TYPE":"U","NORAD_CAT_ID":48783,"ELEMENT_SET_NO":999,"REV_AT_EPOCH":20242,"BSTAR":-0.0013621,"MEAN_MOTION_DOT":-5.0e-6,"MEAN_MOTION_DDOT":0},{"OBJECT_NAME":"ONEWEB-0238","OBJECT_ID":"2021-045T","EPOCH":"2025-08-01T08:10:30.358560","MEAN_MOTION":13.15548054,"ECCENTRICITY":0.0001545,"INCLINATION":87.907,"RA_OF_ASC_NODE":322.9631,"ARG_OF_PERICENTER":100.9167,"MEAN_ANOMALY":259.2137,"EPHEMERIS_TYPE":0,"CLASSIFICATION_TYPE":"U","NORAD_CAT_ID":48784,"ELEMENT_SET_NO":999,"REV_AT_EPOCH":20232,"BSTAR":-0.00022304,"MEAN_MOTION_DOT":-7.1e-7,"MEAN_MOTION_DDOT":0},{"OBJECT_NAME":"ONEWEB-0240","OBJECT_ID":"2021-045U","EPOCH":"2025-08-01T14:09:42.489504","MEAN_MOTION":13.1556133,"ECCENTRICITY":0.0001798,"INCLINATION":87.9079,"RA_OF_ASC_NODE":322.8951,"ARG_OF_PERICENTER":87.9771,"MEAN_ANOMALY":272.1565,"EPHEMERIS_TYPE":0,"CLASSIFICATION_TYPE":"U","NORAD_CAT_ID":48785,"ELEMENT_SET_NO":999,"REV_AT_EPOCH":20350,"BSTAR":-0.0061336,"MEAN_MOTION_DOT":-2.296e-5,"MEAN_MOTION_DDOT":0},{"OBJECT_NAME":"ONEWEB-0246","OBJECT_ID":"2021-045V","EPOCH":"2025-08-01T15:51:13.764672","MEAN_MOTION":13.15550327,"ECCENTRICITY":0.0002094,"INCLINATION":87.9082,"RA_OF_ASC_NODE":322.8927,"ARG_OF_PERICENTER":98.2702,"MEAN_ANOMALY":261.8666,"EPHEMERIS_TYPE":0,"CLASSIFICATION_TYPE":"U","NORAD_CAT_ID":48786,"ELEMENT_SET_NO":999,"REV_AT_EPOCH":20338,"BSTAR":0.0001535,"MEAN_MOTION_DOT":7.1e-7,"MEAN_MOTION_DDOT":0},{"OBJECT_NAME":"ONEWEB-0210","OBJECT_ID":"2021-045W","EPOCH":"2025-08-01T07:56:38.068224","MEAN_MOTION":13.1554794,"ECCENTRICITY":0.0002595,"INCLINATION":87.9082,"RA_OF_ASC_NODE":322.9576,"ARG_OF_PERICENTER":92.263,"MEAN_ANOMALY":267.8798,"EPHEMERIS_TYPE":0,"CLASSIFICATION_TYPE":"U","NORAD_CAT_ID":48787,"ELEMENT_SET_NO":999,"REV_AT_EPOCH":20226,"BSTAR":-0.00020641,"MEAN_MOTION_DOT":-6.5e-7,"MEAN_MOTION_DDOT":0},{"OBJECT_NAME":"ONEWEB-0214","OBJECT_ID":"2021-045X","EPOCH":"2025-08-01T08:09:11.514240","MEAN_MOTION":13.15545973,"ECCENTRICITY":0.0002419,"INCLINATION":87.9079,"RA_OF_ASC_NODE":322.9447,"ARG_OF_PERICENTER":98.1023,"MEAN_ANOMALY":262.0381,"EPHEMERIS_TYPE":0,"CLASSIFICATION_TYPE":"U","NORAD_CAT_ID":48788,"ELEMENT_SET_NO":999,"REV_AT_EPOCH":20223,"BSTAR":-7.3719e-5,"MEAN_MOTION_DOT":-1.5e-7,"MEAN_MOTION_DDOT":0},{"OBJECT_NAME":"ONEWEB-0221","OBJECT_ID":"2021-045Y","EPOCH":"2025-08-01T08:19:28.044768","MEAN_MOTION":13.1555021,"ECCENTRICITY":0.0002073,"INCLINATION":87.9072,"RA_OF_ASC_NODE":322.9726,"ARG_OF_PERICENTER":92.2189,"MEAN_ANOMALY":267.9178,"EPHEMERIS_TYPE":0,"CLASSIFICATION_TYPE":"U","NORAD_CAT_ID":48789,"ELEMENT_SET_NO":999,"REV_AT_EPOCH":20232,"BSTAR":-0.00014342,"MEAN_MOTION_DOT":-4.1e-7,"MEAN_MOTION_DDOT":0},{"OBJECT_NAME":"ONEWEB-0213","OBJECT_ID":"2021-045Z","EPOCH":"2025-08-01T08:03:28.819872","MEAN_MOTION":13.1554763,"ECCENTRICITY":0.0002138,"INCLINATION":87.908,"RA_OF_ASC_NODE":322.9817,"ARG_OF_PERICENTER":93.4308,"MEAN_ANOMALY":266.7067,"EPHEMERIS_TYPE":0,"CLASSIFICATION_TYPE":"U","NORAD_CAT_ID":48790,"ELEMENT_SET_NO":999,"REV_AT_EPOCH":20238,"BSTAR":-0.00015811,"MEAN_MOTION_DOT":-4.7e-7,"MEAN_MOTION_DDOT":0}]
