ONEWEB-0243             
1 48774U 21045H   25213.31990644  .00000016  00000+0  84546-5 0  9999
2 48774  87.9091 323.0097 0002297  91.4822 268.6572 13.15548047202307
ONEWEB-0222             
1 48775U 21045J   25213.60751106  .00000165  00000+0  40551-3 0  9991
2 48775  87.9079 322.9084 0001909  93.3293 266.8056 13.15548977202387
ONEWEB-0244             
1 48776U 21045K   25213.32941368 -.00000046  00000+0 -15742-3 0  9996
2 48776  87.9083 322.9438 0002126  98.5206 261.6165 13.15548068202913
ONEWEB-0247             
1 48777U 21045L   25213.32624755 -.00000039  00000+0 -13813-3 0  9994
2 48777  87.9081 323.0172 0002715  83.7464 276.3975 13.15547362202351
ONEWEB-0245             
1 48778U 21045M   25213.32148911  .00000042  00000+0  76820-4 0  9990
2 48778  87.9079 322.9815 0001830  92.5273 267.6066 13.15548097202321
ONEWEB-0229             
1 48779U 21045N   25213.39279357  .00000026  00000+0  35589-4 0  9996
2 48779  87.9084 322.9665 0002075  97.7907 262.3459 13.15548017202368
ONEWEB-0228             
1 48780U 21045P   25213.35015453  .00000065  00000+0  13801-3 0  9994
2 48780  87.9079 322.9489 0002015  95.8818 264.2542 13.15547952202273
ONEWEB-0232             
1 48781U 21045Q   25213.32467316 -.00000018  00000+0 -82216-4 0  9998
2 48781  87.9077 322.9481 0001948  98.1178 262.0173 13.15549269202597
ONEWEB-0231             
1 48782U 21045R   25213.30247573  .00000217  00000+0  54263-3 0  9997
2 48782  87.9070 323.0065 0002139  92.9107 267.2268 13.15550236202282
ONEWEB-0234             
1 48783U 21045S   25213.34034572 -.00000500  00000+0 -13621-2 0  9994
2 48783  87.9076 322.9655 0001030  99.3267 260.7980 13.15548898202425
ONEWEB-0238             
1 48784U 21045T   25213.34062915 -.00000071  00000+0 -22304-3 0  9999
2 48784  87.9070 322.9631 0001545 100.9167 259.2137 13.15548054202323
ONEWEB-0240             
1 48785U 21045U   25213.59007511 -.00002296  00000+0 -61336-2 0  9996
2 48785  87.9079 322.8951 0001798  87.9771 272.1565 13.15561330203504
ONEWEB-0246             
1 48786U 21045V   25213.66057598  .00000071  00000+0  15350-3 0  9998
2 48786  87.9082 322.8927 0002094  98.2702 261.8666 13.15550327203388
ONEWEB-0210             
1 48787U 21045W   25213.33099616 -.00000065  00000+0 -20641-3 0  9994
2 48787  87.9082 322.9576 0002595  92.2630 267.8798 13.15547940202265
ONEWEB-0214             
1 48788U 21045X   25213.33971660 -.00000015  00000+0 -73719-4 0  9993
2 48788  87.9079 322.9447 0002419  98.1023 262.0381 13.15545973202231
ONEWEB-0221             
1 48789U 21045Y   25213.34685237 -.00000041  00000+0 -14342-3 0  9992
2 48789  87.9072 322.9726 0002073  92.2189 267.9178 13.15550210202327
ONEWEB-0213             
1 48790U 21045Z   25213.33575023 -.00000047  00000+0 -15811-3 0  9992
2 48790  87.9080 322.9817 0002138  93.4308 266.7067 13.15547630202389
